IRIDIUM 155             
1 43573U 18061E   24021.63243602  .00000433  00000+0  14744-3 0  9995
2 43573  86.3933  63.4367 0002211  87.5890 272.5559 14.34217487287573
IRIDIUM 154             
1 43574U 18061F   24021.54363732  .00000481  00000+0  16454-3 0  9996
2 43574  86.3937  63.5644 0002414  96.3755 263.7716 14.34219666287613
IRIDIUM 163             
1 43575U 18061G   24021.66414691  .00000431  00000+0  14670-3 0  9994
2 43575  86.3936  63.4567 0002286  93.8317 266.3140 14.34217429287603
IRIDIUM 156             
1 43576U 18061H   24021.63877339  .00000073  00000+0  19054-4 0  9998
2 43576  86.3938  63.4736 0001958  94.6329 265.5090 14.34215783287595
IRIDIUM 164             
1 43577U 18061J   24021.61974483  .00000088  00000+0  24333-4 0  9997
2 43577  86.3938  63.5077 0002086  96.5853 263.5580 14.34216025287638
IRIDIUM 159             
1 43578U 18061K   24021.16942333  .00000447  00000+0  15250-3 0  9993
2 43578  86.3936  63.6519 0002341  93.9552 266.1911 14.34219845287539
IRIDIUM 180             
1 43922U 19002A   24021.93635565  .00000523  00000+0  17985-3 0  9995
2 43922  86.3985   0.2096 0002389  88.4655 271.6814 14.34215199263252
IRIDIUM 176             
1 43923U 19002B   24021.89977743  .00001907  00000+0  29868-3 0  9998
2 43923  86.6130   0.2531 0002610  82.2565 277.8949 14.72228722270175
IRIDIUM 168             
1 43924U 19002C   24021.93002717  .00000465  00000+0  15885-3 0  9996
2 43924  86.3986   0.2639 0002167  87.3672 272.7772 14.34215437263237
IRIDIUM 173             
1 43925U 19002D   24021.91734770  .00000175  00000+0  55568-4 0  9997
2 43925  86.3983   0.1951 0002314  86.3260 273.8201 14.34217074263213
IRIDIUM 169             
1 43926U 19002E   24021.94526715  .00000294  00000+0  89570-4 0  9991
2 43926  86.4210  31.7860 0003335  36.7416 323.4010 14.38612922264107
IRIDIUM 172             
1 43927U 19002F   24021.91100359  .00000317  00000+0  10602-3 0  9996
2 43927  86.3982   0.2031 0002203  91.8417 268.3031 14.34217313263223
IRIDIUM 175             
1 43928U 19002G   24021.89385669  .00001934  00000+0  30292-3 0  9996
2 43928  86.1530 341.7354 0002442  86.5306 273.6190 14.72218063270166
IRIDIUM 171             
1 43929U 19002H   24021.89197736  .00000505  00000+0  17330-3 0  9994
2 43929  86.3992   0.4200 0002113  90.6924 269.4514 14.34218521263215
IRIDIUM 170             
1 43930U 19002J   24021.43023812  .00000492  00000+0  74171-4 0  9991
2 43930  86.6112   0.4553 0002457  87.3442 272.8057 14.72223325270111
IRIDIUM 167             
1 43931U 19002K   24021.95540307  .00000023  00000+0  11729-5 0  9993
2 43931  86.3984   0.1990 0002088  89.5499 270.5936 14.34217062263228
IRIDIUM 181             
1 56726U 23068S   24021.60144097  .00000670  00000+0  19201-3 0  9993
2 56726  86.8603  46.9052 0001604 102.2863 257.8518 14.43591519 35846
IRIDIUM 177             
1 56727U 23068T   24021.92130482  .00001032  00000+0  13243-3 0  9995
2 56727  86.1965  25.2610 0002436  93.3106 266.8394 14.80213342 36596
IRIDIUM 174             
1 56728U 23068U   24021.44268172  .00002822  00000+0  36808-3 0  9991
2 56728  86.1974  25.5793 0002183  94.0563 266.0907 14.80212790 36527
IRIDIUM 178             
1 56729U 23068V   24021.50482827  .00001115  00000+0  14339-3 0  9993
2 56729  86.5762  36.0118 0002436  95.2753 264.8746 14.80196107 36531
IRIDIUM 179             
1 56730U 23068W   24021.56697288  .00003012  00000+0  39330-3 0  9996
2 56730  86.6773  38.2594 0002274  92.0260 268.1222 14.80190177 36544
